64879,GEOSCAN 6 (RS92S6),2025,94.56,-1.0,+,97.42,Active,0,LEO,Russia,Russia/USSR,Unknown,Unknown,Unknown,1 64879U 25155D   25262.44623413  .00010080  00000+0  43327-3 0  9996,2 64879  97.4193 226.9395 0011291  61.7794 298.4582 15.22797995 39458,15.22797995,0.0011291,LEO
64880,GEOSCAN 1 (RS92S1),2025,94.56,-1.0,+,97.42,Active,0,LEO,Russia,Russia/USSR,Unknown,Unknown,Unknown,1 64880U 25155E   25262.44476033  .00010514  00000+0  45077-3 0  9998,2 64880  97.4196 226.9443 0011271  62.7261 297.5123 15.22873577 39457,15.22873577,0.0011271,LEO
64881,239ALFEROV (RS61S),2025,94.54,-1.0,+,97.42,Active,0,LEO,Russia,Russia/USSR,Unknown,Unknown,Unknown,1 64881U 25155F   25262.43837146  .00012007  00000+0  51004-3 0  9990,2 64881  97.4209 226.9626 0011208  63.6393 296.5994 15.23154781 39457,15.23154781,0.0011208,LEO
64890,GEOSCAN 2 (RS92S2),2025,94.53,-1.0,+,97.42,Active,0,LEO,Russia,Russia/USSR,Unknown,Unknown,Unknown,1 64890U 25155Q   25262.56125679  .00010244  00000+0  43426-3 0  9995,2 64890  97.4194 227.0873 0010085  53.1858 307.0303 15.23277322 39479,15.23277322,0.0010085,LEO
64891,GEOSCAN 5 (RS92S5),2025,94.52,-1.0,+,97.42,Active,0,LEO,Russia,Russia/USSR,Unknown,Unknown,Unknown,1 64891U 25155R   25262.42358207  .00011559  00000+0  48546-3 0  9994,2 64891  97.4201 226.9679 0009953  69.9483 290.2824 15.23562067 39454,15.23562067,0.0009953,LEO
64892,GEOSCAN 4 (RS92S4),2025,94.52,-1.0,+,97.42,Active,0,LEO,Russia,Russia/USSR,Unknown,Unknown,Unknown,1 64892U 25155S   25262.42321814  .00011515  00000+0  48343-3 0  9996,2 64892  97.4202 226.9698 0010072  70.3987 289.8337 15.23575269 39457,15.23575269,0.0010072,LEO
64893,GEOSCAN 3 (RS92S3),2025,94.5,-1.0,+,97.42,Active,0,LEO,Russia,Russia/USSR,Unknown,Unknown,Unknown,1 64893U 25155T   25262.48431460  .00013908  00000+0  57941-3 0  9994,2 64893  97.4200 227.0393 0010001  72.8701 287.3631 15.23788830 39464,15.2378883,0.0010001,LEO
64894,INNOSAT 3 (RS92S0),2025,94.47,-1.0,+,97.42,Active,0,LEO,Russia,Malaysia,Unknown,Unknown,Unknown,1 64894U 25155U   25262.47708191  .00020549  00000+0  84152-3 0  9995,2 64894  97.4196 227.0488 0010272  77.0651 283.1733 15.24279565 39463,15.24279565,0.0010272,LEO
