[{"OBJECT_NAME":"GEOSCAN 6 (RS92S6)","OBJECT_ID":"2025-155D","EPOCH":"2025-09-19T10:42:34.628832","MEAN_MOTION":15.22797995,"ECCENTRICITY":0.00112913,"INCLINATION":97.4193,"RA_OF_ASC_NODE":226.9395,"ARG_OF_PERICENTER":61.7794,"MEAN_ANOMALY":298.4582,"EPHEMERIS_TYPE":0,"CLASSIFICATION_TYPE":"U","NORAD_CAT_ID":64879,"ELEMENT_SET_NO":999,"REV_AT_EPOCH":3945,"BSTAR":0.00043326995,"MEAN_MOTION_DOT":0.0001008,"MEAN_MOTION_DDOT":0},{"OBJECT_NAME":"GEOSCAN 1 (RS92S1)","OBJECT_ID":"2025-155E","EPOCH":"2025-09-19T10:40:27.292512","MEAN_MOTION":15.22873577,"ECCENTRICITY":0.00112713,"INCLINATION":97.4196,"RA_OF_ASC_NODE":226.9443,"ARG_OF_PERICENTER":62.7261,"MEAN_ANOMALY":297.5123,"EPHEMERIS_TYPE":0,"CLASSIFICATION_TYPE":"U","NORAD_CAT_ID":64880,"ELEMENT_SET_NO":999,"REV_AT_EPOCH":3945,"BSTAR":0.00045077065,"MEAN_MOTION_DOT":0.00010514,"MEAN_MOTION_DDOT":0},{"OBJECT_NAME":"239ALFEROV (RS61S)","OBJECT_ID":"2025-155F","EPOCH":"2025-09-19T10:31:15.294144","MEAN_MOTION":15.23154781,"ECCENTRICITY":0.00112088,"INCLINATION":97.4209,"RA_OF_ASC_NODE":226.9626,"ARG_OF_PERICENTER":63.6393,"MEAN_ANOMALY":296.5994,"EPHEMERIS_TYPE":0,"CLASSIFICATION_TYPE":"U","NORAD_CAT_ID":64881,"ELEMENT_SET_NO":999,"REV_AT_EPOCH":3945,"BSTAR":0.00051003698,"MEAN_MOTION_DOT":0.00012007,"MEAN_MOTION_DDOT":0},{"OBJECT_NAME":"GEOSCAN 2 (RS92S2)","OBJECT_ID":"2025-155Q","EPOCH":"2025-09-19T13:28:12.586656","MEAN_MOTION":15.23277322,"ECCENTRICITY":0.00100851,"INCLINATION":97.4194,"RA_OF_ASC_NODE":227.0873,"ARG_OF_PERICENTER":53.1858,"MEAN_ANOMALY":307.0303,"EPHEMERIS_TYPE":0,"CLASSIFICATION_TYPE":"U","NORAD_CAT_ID":64890,"ELEMENT_SET_NO":999,"REV_AT_EPOCH":3947,"BSTAR":0.000434263,"MEAN_MOTION_DOT":0.00010244,"MEAN_MOTION_DDOT":0},{"OBJECT_NAME":"GEOSCAN 5 (RS92S5)","OBJECT_ID":"2025-155R","EPOCH":"2025-09-19T10:09:57.490848","MEAN_MOTION":15.23562067,"ECCENTRICITY":0.00099531,"INCLINATION":97.4201,"RA_OF_ASC_NODE":226.9679,"ARG_OF_PERICENTER":69.9483,"MEAN_ANOMALY":290.2824,"EPHEMERIS_TYPE":0,"CLASSIFICATION_TYPE":"U","NORAD_CAT_ID":64891,"ELEMENT_SET_NO":999,"REV_AT_EPOCH":3945,"BSTAR":0.00048546434,"MEAN_MOTION_DOT":0.00011559,"MEAN_MOTION_DDOT":0},{"OBJECT_NAME":"GEOSCAN 4 (RS92S4)","OBJECT_ID":"2025-155S","EPOCH":"2025-09-19T10:09:26.047296","MEAN_MOTION":15.23575269,"ECCENTRICITY":0.00100725,"INCLINATION":97.4202,"RA_OF_ASC_NODE":226.9698,"ARG_OF_PERICENTER":70.3987,"MEAN_ANOMALY":289.8337,"EPHEMERIS_TYPE":0,"CLASSIFICATION_TYPE":"U","NORAD_CAT_ID":64892,"ELEMENT_SET_NO":999,"REV_AT_EPOCH":3945,"BSTAR":0.0004834266,"MEAN_MOTION_DOT":0.00011515,"MEAN_MOTION_DDOT":0},{"OBJECT_NAME":"GEOSCAN 3 (RS92S3)","OBJECT_ID":"2025-155T","EPOCH":"2025-09-19T11:37:24.781440","MEAN_MOTION":15.2378883,"ECCENTRICITY":0.00100014,"INCLINATION":97.42,"RA_OF_ASC_NODE":227.0393,"ARG_OF_PERICENTER":72.8701,"MEAN_ANOMALY":287.3631,"EPHEMERIS_TYPE":0,"CLASSIFICATION_TYPE":"U","NORAD_CAT_ID":64893,"ELEMENT_SET_NO":999,"REV_AT_EPOCH":3946,"BSTAR":0.0005794148,"MEAN_MOTION_DOT":0.00013908,"MEAN_MOTION_DDOT":0},{"OBJECT_NAME":"INNOSAT 3 (RS92S0)","OBJECT_ID":"2025-155U","EPOCH":"2025-09-19T11:26:59.877024","MEAN_MOTION":15.24279565,"ECCENTRICITY":0.00102727,"INCLINATION":97.4196,"RA_OF_ASC_NODE":227.0488,"ARG_OF_PERICENTER":77.0651,"MEAN_ANOMALY":283.1733,"EPHEMERIS_TYPE":0,"CLASSIFICATION_TYPE":"U","NORAD_CAT_ID":64894,"ELEMENT_SET_NO":999,"REV_AT_EPOCH":3946,"BSTAR":0.00084151824,"MEAN_MOTION_DOT":0.00020549,"MEAN_MOTION_DDOT":0}]
